NORAD_CAT_ID,OBJECT_NAME,OBJECT_TYPE,EPOCH,MEAN_MOTION,ECCENTRICITY,INCLINATION,RA_OF_ASC_NODE,ARG_OF_PERICENTER,MEAN_ANOMALY,BSTAR,MEAN_MOTION_DOT,MEAN_MOTION_DDOT,TLE_LINE0,TLE_LINE1,TLE_LINE2,SEMIMAJOR_AXIS,PERIOD,APOGEE,PERIGEE,DECAYED
55951.0,STARLINK-5908,PAYLOAD,2024-03-06 04:34:40,14.98324326,0.0002482,70.0018,333.6846,267.1448,92.9427,-3.8075e-05,-5.47e-06,0.0,0 STARLINK-5908,1 55951U 23037AP  24066.19074945 -.00000547  00000-0 -38075-4 0  9992,2 55951  70.0018 333.6846 0002482 267.1448  92.9427 14.98324326 54110,6950.21,96.107,573.8,570.35,0.0
55951.0,STARLINK-5908,PAYLOAD,2024-03-07 03:00:33,14.98326657,0.0002645,70.0016,331.3295,258.7314,101.3548,6.5044e-06,-1.5e-07,0.0,0 STARLINK-5908,1 55951U 23037AP  24067.12538736 -.00000015  00000-0  65044-5 0  9995,2 55951  70.0016 331.3295 0002645 258.7314 101.3548 14.98326657 54590,6950.203,96.107,573.907,570.23,0.0
55951.0,STARLINK-5908,PAYLOAD,2024-03-07 11:01:14,14.98322458,0.0002663,70.0011,330.4881,270.2277,89.8577,4.4468e-05,4.38e-06,0.0,0 STARLINK-5908,1 55951U 23037AP  24067.45919041  .00000438  00000-0  44468-4 0  9997,2 55951  70.0011 330.4881 0002663 270.2277  89.8577 14.98322458 54309,6950.216,96.107,573.932,570.23,0.0
55951.0,STARLINK-5908,PAYLOAD,2024-03-08 03:02:34,14.9833027,0.0003014,70.0009,328.8047,269.0736,91.0078,6.3511e-05,6.65e-06,0.0,0 STARLINK-5908,1 55951U 23037AP  24068.12678550  .00000665  00000-0  63511-4 0  9991,2 55951  70.0009 328.8047 0003014 269.0736  91.0078 14.98330270 54748,6950.192,96.107,574.152,569.962,0.0
55951.0,STARLINK-5908,PAYLOAD,2024-03-08 11:03:14,14.98327313,0.0002804,70.0008,327.9619,275.7204,84.3636,0.0001218,1.361e-05,0.0,0 STARLINK-5908,1 55951U 23037AP  24068.46058655  .00001361  00000-0  12180-3 0  9995,2 55951  70.0008 327.9619 0002804 275.7204  84.3636 14.98327313 54459,6950.201,96.107,574.015,570.117,0.0
55951.0,STARLINK-5908,PAYLOAD,2024-03-09 03:04:35,14.98321395,0.0002748,70.0008,326.2787,264.5663,95.5183,0.00026973,3.126e-05,0.0,0 STARLINK-5908,1 55951U 23037AP  24069.12818552  .00003126  00000-0  26973-3 0  9995,2 55951  70.0008 326.2787 0002748 264.5663  95.5183 14.98321395 54892,6950.22,96.108,573.994,570.175,0.0
55951.0,STARLINK-5908,PAYLOAD,2024-03-09 15:53:39,14.98355336,0.0003489,70.0007,324.9321,268.2308,91.8451,-0.00037899,-4.615e-05,0.0,0 STARLINK-5908,1 55951U 23037AP  24069.66225890 -.00004615  00000-0 -37899-3 0  9996,2 55951  70.0007 324.9321 0003489 268.2308  91.8451 14.98355336 54978,6950.115,96.105,574.404,569.555,0.0
55951.0,STARLINK-5908,PAYLOAD,2024-03-10 03:06:35,14.98333925,0.0002867,70.0009,323.7547,271.11,88.9731,2.0311e-05,1.49e-06,0.0,0 STARLINK-5908,1 55951U 23037AP  24070.12958237  .00000149  00000-0  20311-4 0  9995,2 55951  70.0009 323.7547 0002867 271.1100  88.9731 14.98333925 55046,6950.181,96.107,574.038,570.053,0.0
55951.0,STARLINK-5908,PAYLOAD,2024-03-10 09:31:08,14.98331763,0.0002779,70.0011,323.0814,271.4597,88.6243,-2.6543e-05,-4.1e-06,0.0,0 STARLINK-5908,1 55951U 23037AP  24070.39662467 -.00000410  00000-0 -26543-4 0  9997,2 55951  70.0011 323.0814 0002779 271.4597  88.6243 14.98331763 54743,6950.187,96.107,573.984,570.121,0.0
55951.0,STARLINK-5908,PAYLOAD,2024-03-10 22:20:12,14.98331096,0.000322,70.0011,321.7348,269.9706,90.1084,-4.2767e-05,-6.03e-06,0.0,0 STARLINK-5908,1 55951U 23037AP  24070.93070325 -.00000603  00000-0 -42767-4 0  9993,2 55951  70.0011 321.7348 0003220 269.9706  90.1084 14.98331096 54825,6950.19,96.107,574.292,569.817,0.0
55951.0,STARLINK-5908,PAYLOAD,2024-03-11 03:08:36,14.9833352,0.000274,70.0011,321.2299,271.7079,88.3766,4.0093e-06,-4.5e-07,0.0,0 STARLINK-5908,1 55951U 23037AP  24071.13098175 -.00000045  00000-0  40093-5 0  9999,2 55951  70.0011 321.2299 0002740 271.7079  88.3766 14.98333520 55196,6950.182,96.107,573.951,570.143,0.0
55951.0,STARLINK-5908,PAYLOAD,2024-03-11 09:33:09,14.98339708,0.0002533,70.0015,320.5556,269.0796,91.0073,-0.00019016,-2.362e-05,0.0,0 STARLINK-5908,1 55951U 23037AP  24071.39802262 -.00002362  00000-0 -19016-3 0  9991,2 55951  70.0015 320.5556 0002533 269.0796  91.0073 14.98339708 54896,6950.163,96.106,573.788,570.267,0.0
55951.0,STARLINK-5908,PAYLOAD,2024-03-12 03:10:37,14.98329731,0.0002549,70.0013,318.7041,271.2968,88.7899,-8.2061e-06,-1.91e-06,0.0,0 STARLINK-5908,1 55951U 23037AP  24072.13238422 -.00000191  00000-0 -82061-5 0  9995,2 55951  70.0013 318.7041 0002549 271.2968  88.7899 14.98329731 55340,6950.194,96.107,573.83,570.287,0.0
55951.0,STARLINK-5908,PAYLOAD,2024-03-12 09:35:09,14.98343844,0.0002735,70.0007,318.0312,269.8334,90.2512,-0.00023382,-2.883e-05,0.0,0 STARLINK-5908,1 55951U 23037AP  24072.39941968 -.00002883  00000-0 -23382-3 0  9998,2 55951  70.0007 318.0312 0002735 269.8334  90.2512 14.98343844 55389,6950.15,96.106,573.916,570.114,0.0
55951.0,STARLINK-5908,PAYLOAD,2024-03-12 22:24:14,14.98331667,0.0002867,70.0001,316.6846,267.825,92.2581,7.7325e-06,-1e-08,0.0,0 STARLINK-5908,1 55951U 23037AP  24072.93350091 -.00000001  00000-0  77325-5 0  9996,2 55951  70.0001 316.6846 0002867 267.8250  92.2581 14.98331667 55120,6950.188,96.107,574.045,570.06,0.0
55951.0,STARLINK-5908,PAYLOAD,2024-03-13 01:36:30,14.98331749,0.0002863,70.0002,316.3481,267.5583,92.5248,8.9897e-06,1.4e-07,0.0,0 STARLINK-5908,1 55951U 23037AP  24073.06702071  .00000014  00000-0  89897-5 0  9990,2 55951  70.0002 316.3481 0002863 267.5583  92.5248 14.98331749 55488,6950.187,96.107,574.042,570.063,0.0
55951.0,STARLINK-5908,PAYLOAD,2024-03-13 09:37:10,14.98340602,0.0002793,70.001,315.5057,264.2195,95.8645,-0.00017784,-2.215e-05,0.0,0 STARLINK-5908,1 55951U 23037AP  24073.40081838 -.00002215  00000-0 -17784-3 0  9990,2 55951  70.0010 315.5057 0002793 264.2195  95.8645 14.98340602 55195,6950.16,96.106,573.966,570.084,0.0
55951.0,STARLINK-5908,PAYLOAD,2024-03-13 22:26:15,14.9832896,0.0002978,69.9999,314.1592,268.9295,91.1523,-1.3666e-05,-2.56e-06,0.0,0 STARLINK-5908,1 55951U 23037AP  24073.93490269 -.00000256  00000-0 -13666-4 0  9999,2 55951  69.9999 314.1592 0002978 268.9295  91.1523 14.98328960 55270,6950.196,96.107,574.131,569.991,0.0
55951.0,STARLINK-5908,PAYLOAD,2024-03-14 01:38:31,14.98330218,0.0002961,70.0002,313.8225,269.1215,90.9604,4.2305e-06,-4.3e-07,0.0,0 STARLINK-5908,1 55951U 23037AP  24074.06842145 -.00000043  00000-0  42305-5 0  9994,2 55951  70.0002 313.8225 0002961 269.1215  90.9604 14.98330218 55630,6950.192,96.107,574.115,569.999,0.0
55951.0,STARLINK-5908,PAYLOAD,2024-03-14 20:52:09,14.98313378,0.0003405,69.9976,311.8026,265.2943,94.7828,-0.00015948,-1.995e-05,0.0,0 STARLINK-5908,1 55951U 23037AP  24074.86955683 -.00001995  00000-0 -15948-3 0  9993,2 55951  69.9976 311.8026 0003405 265.2943  94.7828 14.98313378 55754,6950.244,96.108,574.476,569.743,0.0
55951.0,STARLINK-5908,PAYLOAD,2024-03-14 22:28:18,14.98313933,0.0003543,69.9985,311.6333,262.255,97.8207,-0.00025544,-3.138e-05,0.0,0 STARLINK-5908,1 55951U 23037AP  24074.93632049 -.00003138  00000-0 -25544-3 0  9993,2 55951  69.9985 311.6333 0003543 262.2550  97.8207 14.98313933 55423,6950.243,96.108,574.57,569.645,0.0
55951.0,STARLINK-5908,PAYLOAD,2024-03-15 22:30:18,14.98328083,0.0002452,70.0007,309.1108,286.5019,73.587,5.1977e-05,5.27e-06,0.0,0 STARLINK-5908,1 55951U 23037AP  24075.93771431  .00000527  00000-0  51977-4 0  9990,2 55951  70.0007 309.1108 0002452 286.5019  73.5870 14.98328083 55575,6950.199,96.107,573.768,570.36,0.0
55951.0,STARLINK-5908,PAYLOAD,2024-03-16 01:42:33,14.98341871,0.0002347,70.0014,308.7735,273.7094,86.3797,0.00022079,2.543e-05,0.0,0 STARLINK-5908,1 55951U 23037AP  24076.07122120  .00002543  00000-0  22079-3 0  9991,2 55951  70.0014 308.7735 0002347 273.7094  86.3797 14.98341871 55938,6950.156,96.106,573.652,570.39,0.0
55951.0,STARLINK-5908,PAYLOAD,2024-03-16 14:31:37,14.98336623,0.0002403,70.003,307.4255,269.6112,90.4772,0.00021963,2.529e-05,0.0,0 STARLINK-5908,1 55951U 23037AP  24076.60530087  .00002529  00000-0  21963-3 0  9990,2 55951  70.0030 307.4255 0002403 269.6112  90.4772 14.98336623 55676,6950.172,96.107,573.708,570.367,0.0
55951.0,STARLINK-5908,PAYLOAD,2024-03-16 19:20:02,14.98332937,0.0002659,70.001,306.9227,271.1806,88.9048,0.00023895,2.759e-05,0.0,0 STARLINK-5908,1 55951U 23037AP  24076.80558180  .00002759  00000-0  23895-3 0  9997,2 55951  70.0010 306.9227 0002659 271.1806  88.9048 14.98332937 56042,6950.184,96.107,573.897,570.201,0.0
55951.0,STARLINK-5908,PAYLOAD,2024-03-16 22:32:18,14.98317962,0.0002669,70.0006,306.5859,278.9992,81.0865,0.00043455,5.094e-05,0.0,0 STARLINK-5908,1 55951U 23037AP  24076.93910546  .00005094  00000-0  43455-3 0  9998,2 55951  70.0006 306.5859 0002669 278.9992  81.0865 14.98317962 55722,6950.23,96.108,573.95,570.24,0.0
55951.0,STARLINK-5908,PAYLOAD,2024-03-17 01:44:34,14.98318996,0.0002735,70.0002,306.2485,276.8083,83.2765,0.00040934,4.793e-05,0.0,0 STARLINK-5908,1 55951U 23037AP  24077.07262602  .00004793  00000-0  40934-3 0  9991,2 55951  70.0002 306.2485 0002735 276.8083  83.2765 14.98318996 56083,6950.227,96.108,573.993,570.191,0.0
55951.0,STARLINK-5908,PAYLOAD,2024-03-17 22:34:19,14.98324899,0.0002887,69.9997,304.06,266.6047,93.4782,0.00014124,1.592e-05,0.0,0 STARLINK-5908,1 55951U 23037AP  24077.94050423  .00001592  00000-0  14124-3 0  9999,2 55951  69.9997 304.0600 0002887 266.6047  93.4782 14.98324899 55870,6950.209,96.107,574.08,570.067,0.0
55951.0,STARLINK-5908,PAYLOAD,2024-03-18 01:46:35,14.98346224,0.0002893,69.9996,303.7231,270.6174,89.4654,-0.00016307,-2.039e-05,0.0,0 STARLINK-5908,1 55951U 23037AP  24078.07402070 -.00002039  00000-0 -16307-3 0  9997,2 55951  69.9996 303.7231 0002893 270.6174  89.4654 14.98346224 56238,6950.143,96.106,574.018,569.997,0.0
55951.0,STARLINK-5908,PAYLOAD,2024-03-18 21:00:12,14.98334851,0.0002779,69.9997,301.7033,266.8213,93.2628,-6.5689e-05,-8.77e-06,0.0,0 STARLINK-5908,1 55951U 23037AP  24078.87513977 -.00000877  00000-0 -65689-4 0  9990,2 55951  69.9997 301.7033 0002779 266.8213  93.2628 14.98334851 56351,6950.178,96.107,573.974,570.111,0.0
